{
  "type": "FeatureCollection",
  "features": [
    {
      "type": "Feature",
      "properties": {
        "norad_id": 58701,
        "name": "TIANMU-1 16",
        "group": "weather",
        "lat": 39.45482923760486,
        "lon": 161.90536601857502,
        "alt_km": 490.29270340899166,
        "timestamp": "2025-12-13T05:42:57.140160+00:00",
        "meta_object_name": "TIANMU-1 16",
        "meta_object_id": "2024-004B",
        "meta_epoch": "2025-12-12T07:29:11.548608",
        "meta_mean_motion": 15.24425087,
        "meta_eccentricity": 0.00044817,
        "meta_inclination": 97.4572,
        "meta_ra_of_asc_node": 167.1723,
        "meta_arg_of_pericenter": 298.3336,
        "meta_mean_anomaly": 61.7449,
        "meta_ephemeris_type": 0,
        "meta_classification_type": "U",
        "meta_norad_cat_id": 58701,
        "meta_element_set_no": 999,
        "meta_rev_at_epoch": 10728,
        "meta_bstar": 0.00043296835,
        "meta_mean_motion_dot": 0.00010557,
        "meta_mean_motion_ddot": 0,
        "tle_line1": "1 58701U 24004B   25346.31193922  .00010557  00000+0  43297-3 0  9996",
        "tle_line2": "2 58701  97.4572 167.1723 0004481 298.3336  61.7449 15.24425087107282"
      },
      "geometry": {
        "type": "Point",
        "coordinates": [
          161.90536601857502,
          39.45482923760486
        ]
      }
    },
    {
      "type": "Feature",
      "properties": {
        "norad_id": 58702,
        "name": "TIANMU-1 17",
        "group": "weather",
        "lat": 54.767433691901225,
        "lon": -0.8028839226000248,
        "alt_km": 489.6870950577968,
        "timestamp": "2025-12-13T05:42:57.140171+00:00",
        "meta_object_name": "TIANMU-1 17",
        "meta_object_id": "2024-004C",
        "meta_epoch": "2025-12-12T07:07:01.659936",
        "meta_mean_motion": 15.24469012,
        "meta_eccentricity": 0.00036729,
        "meta_inclination": 97.4606,
        "meta_ra_of_asc_node": 167.5668,
        "meta_arg_of_pericenter": 302.4132,
        "meta_mean_anomaly": 57.675,
        "meta_ephemeris_type": 0,
        "meta_classification_type": "U",
        "meta_norad_cat_id": 58702,
        "meta_element_set_no": 999,
        "meta_rev_at_epoch": 10727,
        "meta_bstar": 0.00040936123,
        "meta_mean_motion_dot": 9.989e-05,
        "meta_mean_motion_ddot": 0,
        "tle_line1": "1 58702U 24004C   25346.29654699  .00009989  00000+0  40936-3 0  9991",
        "tle_line2": "2 58702  97.4606 167.5668 0003672 302.4132  57.6750 15.24469012107279"
      },
      "geometry": {
        "type": "Point",
        "coordinates": [
          -0.8028839226000248,
          54.767433691901225
        ]
      }
    },
    {
      "type": "Feature",
      "properties": {
        "norad_id": 58703,
        "name": "TIANMU-1 18",
        "group": "weather",
        "lat": -35.6855337149794,
        "lon": -16.70177727991793,
        "alt_km": 498.4855665093355,
        "timestamp": "2025-12-13T05:42:57.140182+00:00",
        "meta_object_name": "TIANMU-1 18",
        "meta_object_id": "2024-004D",
        "meta_epoch": "2025-12-12T08:17:30.950304",
        "meta_mean_motion": 15.2445699,
        "meta_eccentricity": 0.00030495,
        "meta_inclination": 97.4621,
        "meta_ra_of_asc_node": 167.8108,
        "meta_arg_of_pericenter": 302.3113,
        "meta_mean_anomaly": 57.7829,
        "meta_ephemeris_type": 0,
        "meta_classification_type": "U",
        "meta_norad_cat_id": 58703,
        "meta_element_set_no": 999,
        "meta_rev_at_epoch": 10728,
        "meta_bstar": 0.00040869872,
        "meta_mean_motion_dot": 9.968e-05,
        "meta_mean_motion_ddot": 0,
        "tle_line1": "1 58703U 24004D   25346.34549711  .00009968  00000+0  40870-3 0  9990",
        "tle_line2": "2 58703  97.4621 167.8108 0003049 302.3113  57.7829 15.24456990107285"
      },
      "geometry": {
        "type": "Point",
        "coordinates": [
          -16.70177727991793,
          -35.6855337149794
        ]
      }
    },
    {
      "type": "Feature",
      "properties": {
        "norad_id": 58990,
        "name": "INSAT-3DS",
        "group": "weather",
        "lat": 0.004845023913067638,
        "lon": -110.01670195805983,
        "alt_km": 35780.335403079385,
        "timestamp": "2025-12-13T05:42:57.140194+00:00",
        "meta_object_name": "INSAT-3DS",
        "meta_object_id": "2024-033A",
        "meta_epoch": "2025-12-12T03:35:51.342720",
        "meta_mean_motion": 1.00272558,
        "meta_eccentricity": 0.00013519,
        "meta_inclination": 0.0397,
        "meta_ra_of_asc_node": 135.7539,
        "meta_arg_of_pericenter": 127.2447,
        "meta_mean_anomaly": 314.1455,
        "meta_ephemeris_type": 0,
        "meta_classification_type": "U",
        "meta_norad_cat_id": 58990,
        "meta_element_set_no": 999,
        "meta_rev_at_epoch": 4519,
        "meta_bstar": 0,
        "meta_mean_motion_dot": -1.47e-06,
        "meta_mean_motion_ddot": 0,
        "tle_line1": "1 58990U 24033A   25346.14989980 -.00000147  00000+0  00000+0 0  9992",
        "tle_line2": "2 58990   0.0397 135.7539 0001351 127.2447 314.1455  1.00272558 45194"
      },
      "geometry": {
        "type": "Point",
        "coordinates": [
          -110.01670195805983,
          0.004845023913067638
        ]
      }
    },
    {
      "type": "Feature",
      "properties": {
        "norad_id": 59051,
        "name": "METEOR-M2 4",
        "group": "weather",
        "lat": -27.596534619168477,
        "lon": 119.56097855623298,
        "alt_km": 827.3433862081683,
        "timestamp": "2025-12-13T05:42:57.140208+00:00",
        "meta_object_name": "METEOR-M2 4",
        "meta_object_id": "2024-039A",
        "meta_epoch": "2025-12-12T06:47:39.943680",
        "meta_mean_motion": 14.22401172,
        "meta_eccentricity": 0.00070631,
        "meta_inclination": 98.6765,
        "meta_ra_of_asc_node": 303.1991,
        "meta_arg_of_pericenter": 359.9236,
        "meta_mean_anomaly": 0.1939,
        "meta_ephemeris_type": 0,
        "meta_classification_type": "U",
        "meta_norad_cat_id": 59051,
        "meta_element_set_no": 999,
        "meta_rev_at_epoch": 9269,
        "meta_bstar": 5.5773947e-05,
        "meta_mean_motion_dot": 8.1e-07,
        "meta_mean_motion_ddot": 0,
        "tle_line1": "1 59051U 24039A   25346.28310120  .00000081  00000+0  55774-4 0  9995",
        "tle_line2": "2 59051  98.6765 303.1991 0007063 359.9236   0.1939 14.22401172 92694"
      },
      "geometry": {
        "type": "Point",
        "coordinates": [
          119.56097855623298,
          -27.596534619168477
        ]
      }
    },
    {
      "type": "Feature",
      "properties": {
        "norad_id": 60133,
        "name": "GOES 19",
        "group": "weather",
        "lat": 0.006577957853051805,
        "lon": 92.72398198576482,
        "alt_km": 35790.613063309574,
        "timestamp": "2025-12-13T05:42:57.140220+00:00",
        "meta_object_name": "GOES 19",
        "meta_object_id": "2024-119A",
        "meta_epoch": "2025-12-12T06:16:30.060192",
        "meta_mean_motion": 1.00270909,
        "meta_eccentricity": 0.00012818,
        "meta_inclination": 0.0386,
        "meta_ra_of_asc_node": 138.7324,
        "meta_arg_of_pericenter": 173.1034,
        "meta_mean_anomaly": 148.314,
        "meta_ephemeris_type": 0,
        "meta_classification_type": "U",
        "meta_norad_cat_id": 60133,
        "meta_element_set_no": 999,
        "meta_rev_at_epoch": 509,
        "meta_bstar": 0,
        "meta_mean_motion_dot": -2.38e-06,
        "meta_mean_motion_ddot": 0,
        "tle_line1": "1 60133U 24119A   25346.26145903 -.00000238  00000+0  00000+0 0  9992",
        "tle_line2": "2 60133   0.0386 138.7324 0001281 173.1034 148.3140  1.00270909  5094"
      },
      "geometry": {
        "type": "Point",
        "coordinates": [
          92.72398198576482,
          0.006577957853051805
        ]
      }
    },
    {
      "type": "Feature",
      "properties": {
        "norad_id": 65815,
        "name": "FENGYUN 3H",
        "group": "weather",
        "lat": 78.42252106741594,
        "lon": -121.23855223500726,
        "alt_km": 817.8927280424077,
        "timestamp": "2025-12-13T05:42:57.140231+00:00",
        "meta_object_name": "FENGYUN 3H",
        "meta_object_id": "2025-219A",
        "meta_epoch": "2025-12-12T07:20:38.728320",
        "meta_mean_motion": 14.19904563,
        "meta_eccentricity": 6.136e-05,
        "meta_inclination": 98.6584,
        "meta_ra_of_asc_node": 285.9058,
        "meta_arg_of_pericenter": 91.232,
        "meta_mean_anomaly": 268.8927,
        "meta_ephemeris_type": 0,
        "meta_classification_type": "U",
        "meta_norad_cat_id": 65815,
        "meta_element_set_no": 999,
        "meta_rev_at_epoch": 1086,
        "meta_bstar": 0.00010480321,
        "meta_mean_motion_dot": 1.79e-06,
        "meta_mean_motion_ddot": 0,
        "tle_line1": "1 65815U 25219A   25346.30600380  .00000179  00000+0  10480-3 0  9996",
        "tle_line2": "2 65815  98.6584 285.9058 0000613  91.2320 268.8927 14.19904563 10860"
      },
      "geometry": {
        "type": "Point",
        "coordinates": [
          -121.23855223500726,
          78.42252106741594
        ]
      }
    }
  ]
}